NORAD_CAT_ID,OBJECT_NAME,OBJECT_TYPE,EPOCH,MEAN_MOTION,ECCENTRICITY,INCLINATION,RA_OF_ASC_NODE,ARG_OF_PERICENTER,MEAN_ANOMALY,BSTAR,MEAN_MOTION_DOT,MEAN_MOTION_DDOT,TLE_LINE0,TLE_LINE1,TLE_LINE2,SEMIMAJOR_AXIS,PERIOD,APOGEE,PERIGEE,DECAYED
53398.0,STARLINK-4512,PAYLOAD,2022-09-16 22:00:00,15.27792786,0.0001255,53.2174,64.8298,63.4838,351.7513,-0.044572,-0.01118788,0.0,0 STARLINK-4512,1 53398U 22097L   22259.91667824 -.01118788  00000-0 -44572-1 0  9990,2 53398  53.2174  64.8298 0001255  63.4838 351.7513 15.27792786  1307,6860.549,94.254,483.275,481.55300000000005,0.0
53398.0,STARLINK-4512,PAYLOAD,2022-09-17 14:00:01,15.26189132,0.0001554999999999,53.2177,61.7545,51.9336,70.0954,-0.04698,-0.01122544,0.0,0 STARLINK-4512,1 53398U 22097L   22260.58334491 -.01122544  00000-0 -46980-1 0  9996,2 53398  53.2177  61.7545 0001555  51.9336  70.0954 15.26189132  6421,6865.354,94.353,488.287,486.151,0.0
53398.0,STARLINK-4512,PAYLOAD,2022-09-17 22:00:00,15.25382186,0.0001538,53.2174,60.2215,55.6467,98.3328,-0.0478079999999999,-0.01115371,0.0,0 STARLINK-4512,1 53398U 22097L   22260.91667824 -.01115371  00000-0 -47808-1 0  9992,2 53398  53.2174  60.2215 0001538  55.6467  98.3328 15.25382186  1306,6867.775,94.403,490.696,488.584,0.0
53398.0,STARLINK-4512,PAYLOAD,2022-09-18 14:00:01,15.23829921,0.0001452,53.2181,57.15600000000001,74.1936,140.8279,-0.053535,-0.01201415,0.0,0 STARLINK-4512,1 53398U 22097L   22261.58335648 -.01201415  00000-0 -53535-1 0  9991,2 53398  53.2181  57.1560 0001452  74.1936 140.8279 15.23829921  1303,6872.438,94.499,495.301,493.305,0.0
53398.0,STARLINK-4512,PAYLOAD,2022-09-18 22:00:00,15.22974556,0.000136,53.2173,55.6303,74.0719,169.9672,-0.051445,-0.01131031,0.0,0 STARLINK-4512,1 53398U 22097L   22261.91667824 -.01131031  00000-0 -51445-1 0  9996,2 53398  53.2173  55.6303 0001360  74.0719 169.9672 15.22974556  1301,6875.011,94.552,497.811,495.941,0.0
53398.0,STARLINK-4512,PAYLOAD,2022-09-19 06:00:02,15.22171698,0.0001351999999999,53.2175,54.1017,64.712,207.4823,-0.052712,-0.01131506,0.0,0 STARLINK-4512,1 53398U 22097L   22262.25002315 -.01131506  00000-0 -52712-1 0  9997,2 53398  53.2175  54.1017 0001352  64.7120 207.4823 15.22171698  6679,6877.428000000001,94.602,500.223,498.364,0.0
53398.0,STARLINK-4512,PAYLOAD,2022-09-19 14:00:01,15.21370251,0.0001425,53.2176,52.578,56.5983,242.6568,-0.054086,-0.01133626,0.0,0 STARLINK-4512,1 53398U 22097L   22262.58334491 -.01133626  00000-0 -54086-1 0  9997,2 53398  53.2176  52.5780 0001425  56.5983 242.6568 15.21370251  1303,6879.844,94.652,502.689,500.728,0.0
53398.0,STARLINK-4512,PAYLOAD,2022-09-19 22:00:00,15.20567592,0.000134,53.2173,51.0558,56.5879,268.8274,-0.0553679999999999,-0.0113338,0.0,0 STARLINK-4512,1 53398U 22097L   22262.91667824 -.01133380  00000-0 -55368-1 0  9994,2 53398  53.2173  51.0558 0001340  56.5879 268.8274 15.20567592  1306,6882.264,94.701,505.052,503.207,0.0
53398.0,STARLINK-4512,PAYLOAD,2022-09-20 06:00:00,15.19762391,0.0001317,53.2174,49.5331,53.9344,296.6792,-0.056539,-0.01130568,0.0,0 STARLINK-4512,1 53398U 22097L   22263.25001157 -.01130568  00000-0 -56539-1 0  9999,2 53398  53.2174  49.5331 0001317  53.9344 296.6792 15.19762391  6839,6884.695,94.752,507.467,505.653,0.0
53398.0,STARLINK-4512,PAYLOAD,2022-09-20 14:00:01,15.18962188,0.0001455,53.2177,48.015,48.8234,326.0196,-0.0581,-0.01134654,0.0,0 STARLINK-4512,1 53398U 22097L   22263.58334491 -.01134654  00000-0 -58100-1 0  9991,2 53398  53.2177  48.0150 0001455  48.8234 326.0196 15.18962188  1307,6887.113,94.802,509.98,507.976,0.0
53398.0,STARLINK-4512,PAYLOAD,2022-09-20 22:00:01,15.18158656,0.000123,53.2173,46.4983,66.6566,331.5158,-0.059371,-0.01132824,0.0,0 STARLINK-4512,1 53398U 22097L   22263.91668981 -.01132824  00000-0 -59371-1 0  9990,2 53398  53.2173  46.4983 0001230  66.6566 331.5158 15.18158656  1302,6889.543000000002,94.852,512.255,510.56,0.0
53398.0,STARLINK-4512,PAYLOAD,2022-09-21 22:00:00,15.15823246,0.0001378,53.2172,41.9565,48.6396,53.4435,-0.069547,-0.01231792,0.0,0 STARLINK-4512,1 53398U 22097L   22264.91667824 -.01231792  00000-0 -69547-1 0  9996,2 53398  53.2172  41.9565 0001378  48.6396  53.4435 15.15823246  1300,6896.6169999999975,94.998,519.433,517.5319999999998,0.0
53398.0,STARLINK-4512,PAYLOAD,2022-09-22 14:00:01,15.14162372,0.0001463,53.2176,38.938,70.5093,69.4522,-0.068248,-0.01159073,0.0,0 STARLINK-4512,1 53398U 22097L   22265.58334491 -.01159073  00000-0 -68248-1 0  9999,2 53398  53.2176  38.9380 0001463  70.5093  69.4522 15.14162372  1307,6901.66,95.102,524.534,522.515,0.0
53398.0,STARLINK-4512,PAYLOAD,2022-09-22 22:00:00,15.1340574,0.0001439,53.2171,37.4325,52.3027,105.1127,-0.073788,-0.01221056,0.0,0 STARLINK-4512,1 53398U 22097L   22265.91667824 -.01221056  00000-0 -73788-1 0  9991,2 53398  53.2171  37.4325 0001439  52.3027 105.1127 15.13405740  1300,6903.96,95.15,526.818,524.831,0.0
53398.0,STARLINK-4512,PAYLOAD,2022-09-23 14:00:01,15.11733044,0.0001595999999999,53.2174,34.4272,61.3992,128.1089,-0.071079,-0.01129767,0.0,0 STARLINK-4512,1 53398U 22097L   22266.58334491 -.01129767  00000-0 -71079-1 0  9993,2 53398  53.2174  34.4272 0001596  61.3992 128.1089 15.11733044  1307,6909.052,95.255,532.019,529.814,0.0
53398.0,STARLINK-4512,PAYLOAD,2022-09-23 22:00:00,15.10932023,0.0001433,53.2172,32.9268,74.065,130.0254,-0.072854,-0.01132145,0.0,0 STARLINK-4512,1 53398U 22097L   22266.91667824 -.01132145  00000-0 -72854-1 0  9995,2 53398  53.2172  32.9268 0001433  74.0650 130.0254 15.10932023  1308,6911.493,95.305,534.349,532.368,0.0
53398.0,STARLINK-4512,PAYLOAD,2022-09-24 14:00:01,15.09209629,0.0001369,53.2173,29.9303,57.1507,173.2871,-0.031415,-0.00477671,0.0,0 STARLINK-4512,1 53398U 22097L   22267.58335648 -.00477671  00000-0 -31415-1 0  9998,2 53398  53.2173  29.9303 0001369  57.1507 173.2871 15.09209629  7482,6916.751,95.414,539.563,537.669,0.0
53398.0,STARLINK-4512,PAYLOAD,2022-09-24 22:00:00,15.08838161,0.0001392,53.2172,28.4337,66.8391,175.3655,-0.0001737,-3.051e-05,0.0,0 STARLINK-4512,1 53398U 22097L   22267.91667824 -.00003051  00000-0 -17370-3 0  9992,2 53398  53.2172  28.4337 0001392  66.8391 175.3655 15.08838161  7533,6917.886,95.438,540.714,538.788,0.0
53398.0,STARLINK-4512,PAYLOAD,2022-09-25 06:00:00,15.08840122,0.0001634,53.2178,26.9274,59.6535,194.1841,0.004342,0.00069497,0.0,0 STARLINK-4512,1 53398U 22097L   22268.25001157  .00069497  00000-0  43420-2 0  9999,2 53398  53.2178  26.9274 0001634  59.6535 194.1841 15.08840122  7582,6917.88,95.438,540.875,538.615,0.0
53398.0,STARLINK-4512,PAYLOAD,2022-09-25 14:00:01,15.08913875,0.000173,53.2179,25.433000000000003,54.717,210.7413,-0.0044369,-0.00070355,0.0,0 STARLINK-4512,1 53398U 22097L   22268.58334491 -.00070355  00000-0 -44369-2 0  9995,2 53398  53.2179  25.4330 0001730  54.7170 210.7413 15.08913875  1308,6917.655,95.433,540.716,538.323,0.0
53398.0,STARLINK-4512,PAYLOAD,2022-09-25 22:00:01,15.08834078,0.0001646,53.218,23.9361,50.4252,226.6784,-0.0040460999999999,-0.00064099,0.0,0 STARLINK-4512,1 53398U 22097L   22268.91668981 -.00064099  00000-0 -40461-2 0  9993,2 53398  53.2180  23.9361 0001646  50.4252 226.6784 15.08834078  7688,6917.898,95.438,540.9019999999998,538.625,0.0
53398.0,STARLINK-4512,PAYLOAD,2022-09-26 10:00:00,15.08799083,0.0001561999999999,53.2187,21.6912,56.9218,57.4329,0.0022324,0.0003538,0.0,0 STARLINK-4512,1 53398U 22097L   22269.41667824  .00035380  00000-0  22324-2 0  9991,2 53398  53.2187  21.6912 0001562  56.9218  57.4329 15.08799083  7762,6918.005,95.44,540.951,538.79,0.0
53398.0,STARLINK-4512,PAYLOAD,2022-09-26 14:00:01,15.08817989,0.0001653,53.2186,20.9442,51.5963,248.5322,0.0010676,0.00016733,0.0,0 STARLINK-4512,1 53398U 22097L   22269.58334491  .00016733  00000-0  10676-2 0  9998,2 53398  53.2186  20.9442 0001653  51.5963 248.5322 15.08817989  1306,6917.948,95.439,540.956,538.669,0.0
53398.0,STARLINK-4512,PAYLOAD,2022-09-26 22:00:00,15.08847707,0.0001720999999999,53.2178,19.451,47.9621,263.754,0.00088817,0.00013878,0.0,0 STARLINK-4512,1 53398U 22097L   22269.91667824  .00013878  00000-0  88817-3 0  9994,2 53398  53.2178  19.4510 0001721  47.9621 263.7540 15.08847707  1304,6917.857,95.437,540.9119999999998,538.531,0.0
53398.0,STARLINK-4512,PAYLOAD,2022-09-27 06:00:00,15.08808908,0.0001582,53.2189,17.9501,58.2458,265.0552,0.0024048,0.00038159,0.0,0 STARLINK-4512,1 53398U 22097L   22270.25001157  .00038159  00000-0  24048-2 0  9998,2 53398  53.2189  17.9501 0001582  58.2458 265.0552 15.08808908  7895,6917.975,95.44,540.935,538.746,0.0
53398.0,STARLINK-4512,PAYLOAD,2022-09-27 14:00:01,15.08845502,0.0001738,53.2189,16.4555,52.0164,282.8962,-0.0012407,-0.00019983,0.0,0 STARLINK-4512,1 53398U 22097L   22270.58334491 -.00019983  00000-0 -12407-2 0  9996,2 53398  53.2189  16.4555 0001738  52.0164 282.8962 15.08845502  1300,6917.864000000001,95.437,540.931,538.526,0.0
53398.0,STARLINK-4512,PAYLOAD,2022-09-27 22:00:01,15.08868494,0.0001715,53.2186,14.9587,51.0641,295.5141,-0.0008705999999999,-0.00014128,0.0,0 STARLINK-4512,1 53398U 22097L   22270.91668981 -.00014128  00000-0 -87060-3 0  9991,2 53398  53.2186  14.9587 0001715  51.0641 295.5141 15.08868494  1304,6917.793000000002,95.436,540.845,538.472,0.0
53398.0,STARLINK-4512,PAYLOAD,2022-09-28 14:00:01,15.08885035,0.0001703,53.2187,11.9669,50.8469,318.9278,-0.0044299,-0.0007019,0.0,0 STARLINK-4512,1 53398U 22097L   22271.58334491 -.00070190  00000-0 -44299-2 0  9998,2 53398  53.2187  11.9669 0001703  50.8469 318.9278 15.08885035  8099,6917.743,95.435,540.786,538.43,0.0
53398.0,STARLINK-4512,PAYLOAD,2022-09-28 22:00:00,15.08851643,0.000162,53.2183,10.4698,49.9629,331.4188,-0.0057968,-0.00091405,0.0,0 STARLINK-4512,1 53398U 22097L   22271.91667824 -.00091405  00000-0 -57968-2 0  9993,2 53398  53.2183  10.4698 0001620  49.9629 331.4188 15.08851643  1301,6917.845,95.437,540.83,538.589,0.0
